H1 CPF 01  gfz 2021 09 29 00  7721 terrasarx 
H2 0702601  6201 31698    2021 09 29 00 59 42 2021 10 04 00 00 42   120 1 1  0 0 0
H9
10 0 59486  69822.000000  0   -1154824.042   -511566.838   6760823.065
10 0 59486  69942.000000  0   -1986053.399   -158203.769   6583285.245
10 0 59486  70062.000000  0   -2776292.722    212109.086   6290047.078
10 0 59486  70182.000000  0   -3511505.303    592068.407   5886230.332
10 0 59486  70302.000000  0   -4178734.008    973962.019   5378897.336
10 0 59486  70422.000000  0   -4766335.001   1349823.246   4776933.536
10 0 59486  70542.000000  0   -5264188.208   1711595.478   4090897.407
10 0 59486  70662.000000  0   -5663879.910   2051302.738   3332838.540
10 0 59486  70782.000000  0   -5958853.098   2361222.827   2516087.806
10 0 59486  70902.000000  0   -6144523.358   2634059.235   1655022.392
10 0 59486  71022.000000  0   -6218357.010   2863107.974    764808.488
10 0 59486  71142.000000  0   -6179907.077   3042414.372   -138873.556
10 0 59486  71262.000000  0   -6030807.062   3166915.806  -1040113.810
10 0 59486  71382.000000  0   -5774722.852   3232566.346  -1923061.800
10 0 59486  71502.000000  0   -5417263.762   3236441.137  -2772214.328
10 0 59486  71622.000000  0   -4965853.899   3176816.577  -3572693.960
10 0 59486  71742.000000  0   -4429569.650   3053225.348  -4310512.267
10 0 59486  71862.000000  0   -3818947.555   2866485.246  -4972812.238
10 0 59486  71982.000000  0   -3145768.484   2618701.520  -5548086.340
10 0 59486  72102.000000  0   -2422824.614   2313244.144  -6026366.724
10 0 59486  72222.000000  0   -1663672.650   1954700.623  -6399388.499
10 0 59486  72342.000000  0    -882377.776   1548804.376  -6660720.325
10 0 59486  72462.000000  0     -93256.052   1102341.967  -6805864.151
10 0 59486  72582.000000  0     689382.278    623040.237  -6832323.689
10 0 59486  72702.000000  0    1451485.750    119435.461  -6739644.547
10 0 59486  72822.000000  0    2179509.318   -399275.702  -6529420.795
10 0 59486  72942.000000  0    2860649.205   -923399.604  -6205270.172
10 0 59486  73062.000000  0    3483065.330  -1442922.000  -5772778.486
10 0 59486  73182.000000  0    4036086.028  -1947694.154  -5239413.220
10 0 59486  73302.000000  0    4510394.706  -2427628.690  -4614406.511
10 0 59486  73422.000000  0    4898192.313  -2872900.088  -3908605.801
10 0 59486  73542.000000  0    5193332.949  -3274145.322  -3134295.404
10 0 59486  73662.000000  0    5391430.772  -3622661.095  -2304989.908
10 0 59486  73782.000000  0    5489933.728  -3910592.923  -1435201.227
10 0 59486  73902.000000  0    5488161.607  -4131111.580   -540184.481
10 0 59486  74022.000000  0    5387307.356  -4278572.264    364333.475
10 0 59486  74142.000000  0    5190400.585  -4348652.383   1262437.607
10 0 59486  74262.000000  0    4902232.448  -4338463.043   2138313.857
10 0 59486  74382.000000  0    4529245.204  -4246630.582   2976536.623
10 0 59486  74502.000000  0    4079389.540  -4073347.141   3762347.501
10 0 59486  74622.000000  0    3561953.407  -3820390.258   4481920.918
10 0 59486  74742.000000  0    2987365.081  -3491109.326   5122610.818
10 0 59486  74862.000000  0    2366977.953  -3090379.653   5673172.192
10 0 59486  74982.000000  0    1712841.496  -2624526.535   6123956.242
10 0 59486  75102.000000  0    1037462.753  -2101220.726   6467073.826
10 0 59486  75222.000000  0     353564.877  -1529348.596   6696527.310
10 0 59486  75342.000000  0    -326153.435   -918858.728   6808309.507
10 0 59486  75462.000000  0    -989252.990   -280587.145   6800468.937
10 0 59486  75582.000000  0   -1623780.633    373934.936   6673141.486
10 0 59486  75702.000000  0   -2218483.944   1032688.906   6428548.244
10 0 59486  75822.000000  0   -2763010.757   1683388.486   6070959.292
10 0 59486  75942.000000  0   -3248090.450   2313708.113   5606624.100
10 0 59486  76062.000000  0   -3665695.000   2911517.235   5043669.132
10 0 59486  76182.000000  0   -4009176.448   3465115.933   4391961.276
10 0 59486  76302.000000  0   -4273377.862   3963467.094   3662939.998
10 0 59486  76422.000000  0   -4454715.762   4396421.116   2869419.646
10 0 59486  76542.000000  0   -4551230.594   4754927.671   2025363.763
10 0 59486  76662.000000  0   -4562603.721   5031228.739   1145635.920
10 0 59486  76782.000000  0   -4490141.818   5219027.224    245732.365
10 0 59486  76902.000000  0   -4336728.990   5313628.653   -658498.047
10 0 59486  77022.000000  0   -4106746.035   5312052.359  -1551143.494
10 0 59486  77142.000000  0   -3805957.242   5213104.187  -2416519.072
10 0 59486  77262.000000  0   -3441371.407   5017415.238  -3239448.813
10 0 59486  77382.000000  0   -3021079.232   4727441.825  -4005536.562
10 0 59486  77502.000000  0   -2554072.465   4347428.813  -4701416.990
10 0 59486  77622.000000  0   -2050049.882   3883339.382  -5314983.381
10 0 59486  77742.000000  0   -1519215.603   3342754.417  -5835590.477
10 0 59486  77862.000000  0    -972072.639   2734741.309  -6254230.557
10 0 59486  77982.000000  0    -419216.090   2069695.601  -6563678.158
10 0 59486  78102.000000  0     128868.916   1359160.864  -6758602.885
10 0 59486  78222.000000  0     662001.015    615629.109  -6835651.994
10 0 59486  78342.000000  0    1170487.565   -147675.082  -6793502.629
10 0 59486  78462.000000  0    1645296.903   -917025.516  -6632881.143
10 0 59486  78582.000000  0    2078214.331  -1678434.786  -6356550.877
10 0 59486  78702.000000  0    2461981.988  -2417901.906  -5969270.097
10 0 59486  78822.000000  0    2790419.991  -3121664.502  -5477719.978
10 0 59486  78942.000000  0    3058528.376  -3776454.913  -4890401.123
10 0 59486  79062.000000  0    3262565.473  -4369751.668  -4217495.321
10 0 59486  79182.000000  0    3400101.299  -4890020.780  -3470699.412
10 0 59486  79302.000000  0    3470047.424  -5326946.280  -2663032.177
10 0 59486  79422.000000  0    3472660.010  -5671643.959  -1808612.220
10 0 59486  79542.000000  0    3409515.541  -5916849.710   -922412.107
10 0 59486  79662.000000  0    3283459.641  -6057080.077    -19993.005
10 0 59486  79782.000000  0    3098528.139  -6088757.872    882775.121
10 0 59486  79902.000000  0    2859844.292  -6010301.347   1769999.862
10 0 59486  80022.000000  0    2573493.819  -5822172.731   2626056.736
10 0 59486  80142.000000  0    2246379.571  -5526883.754   3435872.602
10 0 59486  80262.000000  0    1886061.628  -5128960.844   4185196.368
10 0 59486  80382.000000  0    1500586.666  -4634870.993   4860853.783
10 0 59486  80502.000000  0    1098311.426  -4052909.250   5450980.117
10 0 59486  80622.000000  0     687722.799  -3393050.809   5945228.380
10 0 59486  80742.000000  0     277259.213  -2666770.323   6334945.441
10 0 59486  80862.000000  0    -124861.306  -1886836.160   6613316.366
10 0 59486  80982.000000  0    -510803.664  -1067082.739   6775477.132
10 0 59486  81102.000000  0    -873266.946   -222163.628   6818595.725
10 0 59486  81222.000000  0   -1205621.482    632711.389   6741918.743
10 0 59486  81342.000000  0   -1502029.652   1482049.772   6546783.356
10 0 59486  81462.000000  0   -1757548.285   2310356.048   6236595.422
10 0 59486  81582.000000  0   -1968211.757   3102414.366   5816773.843
10 0 59486  81702.000000  0   -2131093.829   3843569.219   5294661.032
10 0 59486  81822.000000  0   -2244347.905   4520000.082   4679401.665
10 0 59486  81942.000000  0   -2307224.987   5118985.729   3981788.222
10 0 59486  82062.000000  0   -2320068.233   5629151.748   3214075.393
10 0 59486  82182.000000  0   -2284284.217   6040695.063   2389765.282
10 0 59486  82302.000000  0   -2202291.377   6345580.558   1523368.393
10 0 59486  82422.000000  0   -2077446.342   6537705.373    630143.682
10 0 59486  82542.000000  0   -1913950.076   6613026.004   -274176.815
10 0 59486  82662.000000  0   -1716736.562   6569645.290  -1173673.473
10 0 59486  82782.000000  0   -1491345.932   6407856.227  -2052530.849
10 0 59486  82902.000000  0   -1243784.890   6130136.507  -2895325.144
10 0 59486  83022.000000  0    -980380.315   5741100.519  -3687297.831
10 0 59486  83142.000000  0    -707629.417   5247412.329  -4414614.770
10 0 59486  83262.000000  0    -432049.915   4657659.180  -5064605.561
10 0 59486  83382.000000  0    -160033.237   3982191.171  -5625978.245
10 0 59486  83502.000000  0     102296.074   3232929.812  -6089007.747
10 0 59486  83622.000000  0     349211.222   2423149.389  -6445693.736
10 0 59486  83742.000000  0     575501.328   1567238.152  -6689886.682
10 0 59486  83862.000000  0     776576.122    680443.513  -6817384.077
10 0 59486  83982.000000  0     948554.830   -221396.299  -6825994.937
10 0 59486  84102.000000  0    1088338.141  -1122129.948  -6715572.947
10 0 59486  84222.000000  0    1193662.258  -2005574.870  -6488016.897
10 0 59486  84342.000000  0    1263134.971  -2855799.545  -6147241.958
10 0 59486  84462.000000  0    1296253.687  -3657405.845  -5699121.736
10 0 59486  84582.000000  0    1293403.116  -4395807.731  -5151396.967
10 0 59486  84702.000000  0    1255834.719  -5057497.600  -4513551.841
10 0 59486  84822.000000  0    1185627.201  -5630298.572  -3796661.705
10 0 59486  84942.000000  0    1085627.720  -6103597.866  -3013209.825
10 0 59486  85062.000000  0     959375.982  -6468554.334  -2176876.485
10 0 59486  85182.000000  0     811012.544  -6718276.328  -1302303.108
10 0 59486  85302.000000  0     645172.342  -6847963.900   -404834.404
10 0 59486  85422.000000  0     466866.364  -6855010.351    499755.597
10 0 59486  85542.000000  0     281354.602  -6739061.339   1395547.378
10 0 59486  85662.000000  0      94013.320  -6502029.536   2266764.931
10 0 59486  85782.000000  0     -89799.952  -6148062.844   3098063.781
10 0 59486  85902.000000  0    -264880.207  -5683465.278   3874809.883
10 0 59486  86022.000000  0    -426304.409  -5116575.799   4583340.772
10 0 59486  86142.000000  0    -569552.736  -4457609.630   5211208.181
10 0 59486  86262.000000  0    -690618.654  -3718464.285   5747396.014
99
